[{"OBJECT_NAME":"STARLINK-4422","OBJECT_ID":"2022-104BD","EPOCH":"2026-03-09T17:24:19.132416","MEAN_MOTION":15.08859115,"ECCENTRICITY":0.00013576,"INCLINATION":53.2179,"RA_OF_ASC_NODE":223.7502,"ARG_OF_PERICENTER":83.4597,"MEAN_ANOMALY":276.6549,"EPHEMERIS_TYPE":0,"CLASSIFICATION_TYPE":"U","NORAD_CAT_ID":53639,"ELEMENT_SET_NO":999,"REV_AT_EPOCH":19606,"BSTAR":0.0002237864,"MEAN_MOTION_DOT":3.277e-5,"MEAN_MOTION_DDOT":0},{"OBJECT_NAME":"CZ-6A DEB","OBJECT_ID":"2024-140AAN","EPOCH":"2026-03-09T15:08:07.195776","MEAN_MOTION":15.20547394,"ECCENTRICITY":0.0064261,"INCLINATION":89.3669,"RA_OF_ASC_NODE":306.3092,"ARG_OF_PERICENTER":93.6352,"MEAN_ANOMALY":267.2246,"EPHEMERIS_TYPE":0,"CLASSIFICATION_TYPE":"U","NORAD_CAT_ID":61480,"ELEMENT_SET_NO":999,"REV_AT_EPOCH":8198,"BSTAR":0.0033609,"MEAN_MOTION_DOT":0.00078405,"MEAN_MOTION_DDOT":0}]
